{
  "type": "FeatureCollection",
  "name": "ViaBarcazas_Paraguay_Parana_Commercial_Coverage_Request",
  "features": [
    {
      "type": "Feature",
      "properties": {
        "name": "Paraguay-Parana Waterway preliminary commercial corridor",
        "purpose": "AIS coverage and API pricing estimate",
        "note": "Indicative corridor only. It is not a navigation boundary or an official waterway chart.",
        "route_scope": "Caceres, Brazil to Nueva Palmira / Rio de la Plata, Uruguay"
      },
      "geometry": {
        "type": "Polygon",
        "coordinates": [[
          [-57.98, -16.00],
          [-58.02, -17.40],
          [-57.98, -19.05],
          [-57.98, -20.55],
          [-58.45, -21.75],
          [-58.45, -23.20],
          [-58.34, -24.45],
          [-57.92, -25.45],
          [-57.82, -26.55],
          [-58.42, -27.38],
          [-59.68, -28.45],
          [-60.05, -29.85],
          [-60.22, -31.10],
          [-60.78, -32.92],
          [-60.15, -33.55],
          [-58.55, -34.10],
          [-58.22, -33.62],
          [-59.56, -33.10],
          [-60.48, -32.72],
          [-59.82, -31.00],
          [-59.45, -29.65],
          [-58.20, -27.12],
          [-57.42, -26.48],
          [-57.38, -25.18],
          [-57.85, -24.04],
          [-58.02, -22.75],
          [-57.88, -21.60],
          [-57.48, -20.35],
          [-57.48, -18.98],
          [-57.55, -17.35],
          [-57.60, -16.00],
          [-57.98, -16.00]
        ]]
      }
    }
  ]
}
